JASON-2(OSTM)
1 33105U 08032A   18093.96717773 -.00000062  00000-0  77416-6 0  9993
2 33105  66.0406 230.7450 0007728 272.8502 193.8119 12.87627198457961
